{
  "type": "FeatureCollection",
  "features": [
    {
      "type": "Feature",
      "properties": {
        "norad_id": 31215,
        "name": "FENGYUN 1C DEB",
        "group": "fengyun-1c-debris",
        "lat": -62.55938996078,
        "lon": -158.64298703600713,
        "alt_km": 752.7921108039118,
        "timestamp": "2025-12-05T16:54:14.928632+00:00",
        "meta_object_name": "FENGYUN 1C DEB",
        "meta_object_id": "1999-025BKV",
        "meta_epoch": "2025-12-01T19:24:11.403648",
        "meta_mean_motion": 14.33696459,
        "meta_eccentricity": 0.00702274,
        "meta_inclination": 99.0744,
        "meta_ra_of_asc_node": 179.3473,
        "meta_arg_of_pericenter": 355.6358,
        "meta_mean_anomaly": 4.4204,
        "meta_ephemeris_type": 0,
        "meta_classification_type": "U",
        "meta_norad_cat_id": 31215,
        "meta_element_set_no": 999,
        "meta_rev_at_epoch": 96369,
        "meta_bstar": 0.00097709666,
        "meta_mean_motion_dot": 2.74e-05,
        "meta_mean_motion_ddot": 0,
        "tle_line1": "1 31215U 99025BKV 25335.80846532  .00002740  00000+0  97710-3 0  9990",
        "tle_line2": "2 31215  99.0744 179.3473 0070227 355.6358   4.4204 14.33696459963691"
      },
      "geometry": {
        "type": "Point",
        "coordinates": [
          -158.64298703600713,
          -62.55938996078
        ]
      }
    },
    {
      "type": "Feature",
      "properties": {
        "norad_id": 31217,
        "name": "FENGYUN 1C DEB",
        "group": "fengyun-1c-debris",
        "lat": 38.39274061628412,
        "lon": 174.7048948829414,
        "alt_km": 775.1557933811455,
        "timestamp": "2025-12-05T16:54:14.928640+00:00",
        "meta_object_name": "FENGYUN 1C DEB",
        "meta_object_id": "1999-025BKX",
        "meta_epoch": "2025-12-05T06:04:23.974464",
        "meta_mean_motion": 14.17510869,
        "meta_eccentricity": 0.00992473,
        "meta_inclination": 98.6408,
        "meta_ra_of_asc_node": 347.3456,
        "meta_arg_of_pericenter": 181.5535,
        "meta_mean_anomaly": 178.5346,
        "meta_ephemeris_type": 0,
        "meta_classification_type": "U",
        "meta_norad_cat_id": 31217,
        "meta_element_set_no": 999,
        "meta_rev_at_epoch": 96242,
        "meta_bstar": 0.00092557024,
        "meta_mean_motion_dot": 1.929e-05,
        "meta_mean_motion_ddot": 0,
        "tle_line1": "1 31217U 99025BKX 25339.25305526  .00001929  00000+0  92557-3 0  9990",
        "tle_line2": "2 31217  98.6408 347.3456 0099247 181.5535 178.5346 14.17510869962421"
      },
      "geometry": {
        "type": "Point",
        "coordinates": [
          174.7048948829414,
          38.39274061628412
        ]
      }
    },
    {
      "type": "Feature",
      "properties": {
        "norad_id": 31218,
        "name": "FENGYUN 1C DEB",
        "group": "fengyun-1c-debris",
        "lat": 79.2015690416517,
        "lon": -36.01558074615151,
        "alt_km": 640.9739375875224,
        "timestamp": "2025-12-05T16:54:14.928649+00:00",
        "meta_object_name": "FENGYUN 1C DEB",
        "meta_object_id": "1999-025BKY",
        "meta_epoch": "2025-12-04T12:44:00.040128",
        "meta_mean_motion": 14.71780481,
        "meta_eccentricity": 0.0011488,
        "meta_inclination": 98.8431,
        "meta_ra_of_asc_node": 87.9996,
        "meta_arg_of_pericenter": 63.3018,
        "meta_mean_anomaly": 296.9361,
        "meta_ephemeris_type": 0,
        "meta_classification_type": "U",
        "meta_norad_cat_id": 31218,
        "meta_element_set_no": 999,
        "meta_rev_at_epoch": 96962,
        "meta_bstar": 0.011647,
        "meta_mean_motion_dot": 0.00073542,
        "meta_mean_motion_ddot": 0,
        "tle_line1": "1 31218U 99025BKY 25338.53055602  .00073542  00000+0  11647-1 0  9997",
        "tle_line2": "2 31218  98.8431  87.9996 0011488  63.3018 296.9361 14.71780481969620"
      },
      "geometry": {
        "type": "Point",
        "coordinates": [
          -36.01558074615151,
          79.2015690416517
        ]
      }
    },
    {
      "type": "Feature",
      "properties": {
        "norad_id": 31219,
        "name": "FENGYUN 1C DEB",
        "group": "fengyun-1c-debris",
        "lat": -5.559663405225068,
        "lon": -9.789771391323129,
        "alt_km": 902.767668231767,
        "timestamp": "2025-12-05T16:54:14.928658+00:00",
        "meta_object_name": "FENGYUN 1C DEB",
        "meta_object_id": "1999-025BKZ",
        "meta_epoch": "2025-11-28T23:33:42.264288",
        "meta_mean_motion": 14.13677132,
        "meta_eccentricity": 0.00786886,
        "meta_inclination": 99.2839,
        "meta_ra_of_asc_node": 342.322,
        "meta_arg_of_pericenter": 215.6749,
        "meta_mean_anomaly": 143.9149,
        "meta_ephemeris_type": 0,
        "meta_classification_type": "U",
        "meta_norad_cat_id": 31219,
        "meta_element_set_no": 999,
        "meta_rev_at_epoch": 95375,
        "meta_bstar": 0.0014850879,
        "meta_mean_motion_dot": 2.841e-05,
        "meta_mean_motion_ddot": 0,
        "tle_line1": "1 31219U 99025BKZ 25332.98173917  .00002841  00000+0  14851-2 0  9996",
        "tle_line2": "2 31219  99.2839 342.3220 0078688 215.6749 143.9149 14.13677132953750"
      },
      "geometry": {
        "type": "Point",
        "coordinates": [
          -9.789771391323129,
          -5.559663405225068
        ]
      }
    },
    {
      "type": "Feature",
      "properties": {
        "norad_id": 31222,
        "name": "FENGYUN 1C DEB",
        "group": "fengyun-1c-debris",
        "lat": -39.55291166424835,
        "lon": -138.23280842328555,
        "alt_km": 651.7173423666973,
        "timestamp": "2025-12-05T16:54:14.928667+00:00",
        "meta_object_name": "FENGYUN 1C DEB",
        "meta_object_id": "1999-025BLC",
        "meta_epoch": "2025-12-04T15:53:13.949664",
        "meta_mean_motion": 14.97569168,
        "meta_eccentricity": 0.0170527,
        "meta_inclination": 98.6136,
        "meta_ra_of_asc_node": 47.8098,
        "meta_arg_of_pericenter": 95.8565,
        "meta_mean_anomaly": 266.2121,
        "meta_ephemeris_type": 0,
        "meta_classification_type": "U",
        "meta_norad_cat_id": 31222,
        "meta_element_set_no": 999,
        "meta_rev_at_epoch": 99863,
        "meta_bstar": 0.0014358,
        "meta_mean_motion_dot": 0.00022616,
        "meta_mean_motion_ddot": 0,
        "tle_line1": "1 31222U 99025BLC 25338.66196701  .00022616  00000+0  14358-2 0  9991",
        "tle_line2": "2 31222  98.6136  47.8098 0170527  95.8565 266.2121 14.97569168998632"
      },
      "geometry": {
        "type": "Point",
        "coordinates": [
          -138.23280842328555,
          -39.55291166424835
        ]
      }
    },
    {
      "type": "Feature",
      "properties": {
        "norad_id": 31223,
        "name": "FENGYUN 1C DEB",
        "group": "fengyun-1c-debris",
        "lat": 41.8473987913281,
        "lon": 54.54435297056914,
        "alt_km": 929.495682674994,
        "timestamp": "2025-12-05T16:54:14.928676+00:00",
        "meta_object_name": "FENGYUN 1C DEB",
        "meta_object_id": "1999-025BLD",
        "meta_epoch": "2025-12-05T04:03:30.279744",
        "meta_mean_motion": 13.77185401,
        "meta_eccentricity": 0.02414713,
        "meta_inclination": 99.0055,
        "meta_ra_of_asc_node": 225.8719,
        "meta_arg_of_pericenter": 60.8193,
        "meta_mean_anomaly": 301.6886,
        "meta_ephemeris_type": 0,
        "meta_classification_type": "U",
        "meta_norad_cat_id": 31223,
        "meta_element_set_no": 999,
        "meta_rev_at_epoch": 92624,
        "meta_bstar": 0.003835107,
        "meta_mean_motion_dot": 4.672e-05,
        "meta_mean_motion_ddot": 0,
        "tle_line1": "1 31223U 99025BLD 25339.16910046  .00004672  00000+0  38351-2 0  9995",
        "tle_line2": "2 31223  99.0055 225.8719 0241471  60.8193 301.6886 13.77185401926243"
      },
      "geometry": {
        "type": "Point",
        "coordinates": [
          54.54435297056914,
          41.8473987913281
        ]
      }
    },
    {
      "type": "Feature",
      "properties": {
        "norad_id": 31224,
        "name": "FENGYUN 1C DEB",
        "group": "fengyun-1c-debris",
        "lat": 62.107141201891835,
        "lon": 168.02529559747782,
        "alt_km": 743.8516484205102,
        "timestamp": "2025-12-05T16:54:14.928685+00:00",
        "meta_object_name": "FENGYUN 1C DEB",
        "meta_object_id": "1999-025BLE",
        "meta_epoch": "2025-12-03T18:07:18.672672",
        "meta_mean_motion": 14.28870959,
        "meta_eccentricity": 0.01575493,
        "meta_inclination": 98.3692,
        "meta_ra_of_asc_node": 330.0057,
        "meta_arg_of_pericenter": 189.4604,
        "meta_mean_anomaly": 347.708,
        "meta_ephemeris_type": 0,
        "meta_classification_type": "U",
        "meta_norad_cat_id": 31224,
        "meta_element_set_no": 999,
        "meta_rev_at_epoch": 69122,
        "meta_bstar": 0.00043720692,
        "meta_mean_motion_dot": 1.217e-05,
        "meta_mean_motion_ddot": 0,
        "tle_line1": "1 31224U 99025BLE 25337.75507723  .00001217  00000+0  43721-3 0  9993",
        "tle_line2": "2 31224  98.3692 330.0057 0157549 189.4604 347.7080 14.28870959691224"
      },
      "geometry": {
        "type": "Point",
        "coordinates": [
          168.02529559747782,
          62.107141201891835
        ]
      }
    }
  ]
}